IRIDIUM 7               
1 24793U 97020B   25077.86319905  .00001329  00000+0  45281-3 0  9992
2 24793  86.3992 214.7114 0002294  89.2665 270.8795 14.35824237458933
IRIDIUM 5               
1 24795U 97020D   25077.61271124  .00010599  00000+0  89191-3 0  9994
2 24795  86.3881 125.4823 0114096 103.2082 258.1904 14.93108862471941
IRIDIUM 4               
1 24796U 97020E   25077.90350834  .00001388  00000+0  46465-3 0  9996
2 24796  86.3995 211.6333 0002214  94.8552 265.2897 14.36733156459502
IRIDIUM 914             
1 24836U 97030A   25077.88039216  .00001630  00000+0  50415-3 0  9997
2 24836  86.3955 220.5135 0003163 121.4217 238.7292 14.40731600594120
IRIDIUM 16              
1 24841U 97030F   25077.84416025  .00001439  00000+0  46404-3 0  9996
2 24841  86.3999 243.2104 0003079  45.0822 315.0626 14.38578351454013
IRIDIUM 911             
1 24842U 97030G   25077.90799707  .00001941  00000+0  52287-3 0  9999
2 24842  86.4428 242.0470 0015571  45.0784 315.1679 14.47454568462024
IRIDIUM 17              
1 24870U 97034B   25077.63631617  .00001150  00000+0  37627-3 0  9992
2 24870  86.3895 272.8483 0001425  37.9126 322.2172 14.37687783450570
IRIDIUM 920             
1 24871U 97034C   25077.84235699  .00001392  00000+0  42358-3 0  9991
2 24871  86.3924 252.1739 0012402  29.3523 330.8371 14.41394646453568
